ROBUSTA 1F (MTCUBE-2)
1 53109U 22080E   26186.23812326 -.00000003  00000-0  00000+0 0  9993
2 53109  70.1429 291.9681 0008935 285.8124  74.1550  6.42583233 93228
BLUEWALKER-3
1 53807U 22111AL  26186.37049991  .00010082  00000-0  27113-3 0  9993
2 53807  53.2299 308.5929 0004851 224.6081 135.4534 15.38520840213009
ELEKTRO-L4
1 55506U 23016A   26185.75406485 -.00000046  00000-0  00000+0 0  9994
2 55506   0.0961 136.4570 0001113  43.2464 180.2950  1.00271969 12513
SHARJAHSAT-1
1 55104U 23001CZ  26186.64806230  .00021662  00000-0  38962-3 0  9991
2 55104  97.3158 255.6780 0005740  50.4803 309.6955 15.49843124195350
METEOR M2-3
1 57166U 23091A   26186.64770779  .00000004  00000-0  20360-4 0  9999
2 57166  98.6078 241.2475 0005085 111.6390 248.5331 14.24048407157147
RESHUCUBE-2 (RS37S)
1 57168U 23091C   26186.38433947  .00014153  00000-0  53734-3 0  9995
2 57168  97.5009 248.7928 0011946  49.8619 310.3664 15.26877541167033
RASSVET 1-1
1 57169U 23091D   26186.37001962  .00013437  00000-0  54816-3 0  9999
2 57169  97.5096 247.9489 0010772  46.7967 313.4169 15.24500454166937
RASSVET 1-2
1 57170U 23091E   26186.37017676  .00013489  00000-0  55048-3 0  9995
2 57170  97.5101 248.0279 0009524  39.9700 320.2236 15.24499622166932
RASSVET 1-3
1 57171U 23091F   26186.36979074  .00013435  00000-0  54789-3 0  9996
2 57171  97.5097 247.9772 0011788  55.7522 304.4830 15.24502527166939
UMKA-1 (RS40S)
1 57172U 23091G   26186.58136605  .00008698  00000-0  39374-3 0  9994
2 57172  97.5033 245.2092 0013812  60.5152 299.7460 15.21046613166806
SATURN (RS43S)
1 57174U 23091J   26186.56214070  .00005968  00000-0  33087-3 0  9999
2 57174  97.5039 239.3969 0014777  86.1493 274.1428 15.14065759166416
CUBEBEL-2 (EU11S)
1 57175U 23091K   26186.37288595  .00019179  00000-0  66824-3 0  9996
2 57175  97.5036 249.7567 0010479  58.6643 301.5622 15.29650226167089
SITRO-AIS-5 (ANOKHIN)
1 57176U 23091L   26186.38650509  .00017983  00000-0  62168-3 0  9994
2 57176  97.5046 250.4630 0011635  45.8632 314.3563 15.29906996167121
ZORKIY-2M
1 57177U 23091M   26186.36921218  .00011067  00000-0  49824-3 0  9992
2 57177  97.5076 245.2785 0014286  58.3519 301.9108 15.21161082166763
CUBESX-HSE-3 (RS42S)
1 57178U 23091N   26186.33841913  .00021027  00000-0  68705-3 0  9999
2 57178  97.5076 252.1595 0010690  36.4558 323.7409 15.31708965167209
PHI-DEMO
1 57181U 23091R   26186.39586705  .00004116  00000-0  22567-3 0  9990
2 57181  97.5050 240.1048 0016639  77.0021 283.3068 15.14620430166448
MONITOR-3 (RS58S)
1 57180U 23091Q   26186.40346172  .00016751  00000-0  60963-3 0  9993
2 57180  97.5068 249.9865 0012003  43.0483 317.1692 15.28236026167074
NORBY-2
1 57179U 23091P   26186.42871237  .00007162  00000-0  36829-3 0  9998
2 57179  97.5078 242.2388 0016150  65.7416 294.5503 15.16646647166555
MONITOR-4 (RS57S)
1 57182U 23091S   26186.38150882  .00017481  00000-0  63435-3 0  9991
2 57182  97.5062 249.9366 0012017  43.4911 316.7273 15.28322643167072
MONITOR-2 (RS39S)
1 57184U 23091U   26186.42832663  .00007861  00000-0  37712-3 0  9992
2 57184  97.5058 244.5943 0012259  55.5193 304.7198 15.19093656166728
SVYATOBOR-1 (RS60S)
1 57187U 23091X   26186.41055174  .00014009  00000-0  53114-3 0  9994
2 57187  97.5074 250.3311 0009748  37.9509 322.2415 15.26947642167096
VIZARD-METEO (RS38S)
1 57189U 23091Z   26186.38493385  .00024020  00000-0  67175-3 0  9998
2 57189  97.5077 256.2412 0006594  17.8766 342.2708 15.36649231167480
SITRO-AIS-6 (CHIRKIN)
1 57192U 23091AC  26186.34226705  .00016029  00000-0  61852-3 0  9994
2 57192  97.5052 249.4402 0012162  49.5387 310.6909 15.26306510167053
SITRO-AIS-8 (SHCHUKIN)
1 57193U 23091AD  26186.37129250  .00021204  00000-0  67239-3 0  9991
2 57193  97.5041 252.1113 0010502  42.1183 318.0864 15.32670184167231
SITRO-AIS-7 (SHEFFER)
1 57194U 23091AE  26186.41474566  .00014587  00000-0  56870-3 0  9995
2 57194  97.5049 249.3285 0012113  50.3943 309.8362 15.25985579167053
AVION KALUGA 650 (RS24S)
1 57195U 23091AF  26186.39215274  .00009119  00000-0  41888-3 0  9990
2 57195  97.5072 245.8961 0011286  53.9376 306.2903 15.20560483166791
SITRO-AIS-10 (KATYS)
1 57199U 23091AK  26186.39028289  .00028848  00000-0  73846-3 0  9991
2 57199  97.5068 257.3754 0005819  20.3075 339.8400 15.39353688167564
SITRO-AIS-9 (BURDAEV)
1 57201U 23091AM  26186.42256927  .00029097  00000-0  75713-3 0  9993
2 57201  97.5066 257.1239 0006096  20.1356 340.0128 15.38846624167556
UTMN-2 (RS27S)
1 57203U 23091AP  26186.28088451  .00020569  00000-0  65579-3 0  9998
2 57203  97.5072 253.7572 0007768  26.0626 334.1005 15.32528055167310
SITRO-AIS-12 (FARTUSHNY)
1 57204U 23091AQ  26186.34470568  .00029894  00000-0  77048-3 0  9994
2 57204  97.5079 257.5228 0005600  14.4252 345.7152 15.39137120167561
AHMAT-1 (RS41S)
1 57206U 23091AS  26186.40762980  .00129769  00000-0  12212-2 0  9998
2 57206  97.5023 267.4113 0002684 271.9629  88.1324 15.66691448168245
SITRO-AIS-11 (SMIRENNY)
1 57208U 23091AU  26186.35304588  .00030846  00000-0  78358-3 0  9991
2 57208  97.5076 257.7894 0005484  13.7024 346.4369 15.39575514167585
KUZGTU-1 (RS47S)
1 57217U 23091AV  26186.41119479  .00017588  00000-0  60067-3 0  9997
2 57217  97.5048 251.0808 0011059  39.9978 320.2075 15.30312456167162
METEOR M2-4
1 59051U 24039A   26186.61303387  .00000020  00000-0  28449-4 0  9995
2 59051  98.7020 145.6802 0008121 112.6176 247.5862 14.22431409121884
PARS-1
1 59065U 24039Q   26186.63278799  .00012895  00000-0  26436-3 0  9996
2 59065  97.4836 168.1389 0010864  57.5192 302.7106 15.46136025131498
SITRO-AIS-25
1 59066U 24039R   26186.59945705  .00003541  00000-0  27778-3 0  9998
2 59066  95.3897 247.7454 0142207 263.5139  94.9879 14.93609642127478
SITRO-AIS-26
1 59067U 24039S   26186.60335563  .00003024  00000-0  23870-3 0  9991
2 59067  95.3897 247.6420 0142576 264.1139  94.3820 14.93402013127469
SITRO-AIS-27
1 59068U 24039T   26186.63541140  .00003631  00000-0  28338-3 0  9993
2 59068  95.3893 247.9443 0141776 262.5358  95.9740 14.93821762127497
SITRO-AIS-28
1 59071U 24039U   26186.61243683  .00002969  00000-0  23221-3 0  9995
2 59071  95.3899 247.9770 0141611 262.4765  96.0355 14.93857740127498
SONATE-2
1 59112U 24043Q   26185.97773330  .00063960  00000-0  78271-3 0  9994
2 59112  97.5552 337.4841 0007050 138.7843 221.3947 15.60161084130665
HORS-1
1 57188U 23091Y   26186.39477762  .00014436  00000-0  54540-3 0  9991
2 57188  97.5051 250.0752 0009212  38.2395 321.9495 15.27061564167096
HORS-2
1 57196U 23091AG  26186.38607764  .00018412  00000-0  59003-3 0  9993
2 57196  97.5074 253.6684 0007877  30.5242 329.6456 15.32387203167318
ZORKIY-2M 6
1 59774U 24092B   26186.62618674  .00011165  00000-0  39741-3 0  9993
2 59774  97.6514 316.2435 0009868 116.2401 243.9854 15.29091068118350
ZORKIY-2M 4
1 59775U 24092C   26186.59815130  .00011648  00000-0  40557-3 0  9999
2 59775  97.6659 318.1193 0009897 118.4338 241.7900 15.29800931118397
SITRO-AIS-53
1 59776U 24092D   26186.31902463  .00030179  00000-0  81498-3 0  9995
2 59776  97.6596 320.1556 0007631  90.0857 270.1262 15.37684661118531
SITRO-AIS-54
1 59777U 24092E   26186.33456821  .00029928  00000-0  81038-3 0  9990
2 59777  97.6599 320.1257 0007678  89.7852 270.4271 15.37602063118533
SITRO-AIS-56
1 59778U 24092F   26186.30149612  .00030385  00000-0  80217-3 0  9992
2 59778  97.6595 320.4364 0007850  89.3780 270.8363 15.38381014118559
RASSVET 1-4
1 59779U 24092G   26186.60328270  .00000187  00000-0  86624-4 0  9991
2 59779  98.6724 305.6262 0012551 149.7298 210.4612 14.31852542111535
RASSVET 1-5
1 59780U 24092H   26186.60317750  .00000208  00000-0  94241-4 0  9992
2 59780  98.6723 305.6185 0012899 151.1883 209.0015 14.31854162111533
RASSVET 1-6
1 59781U 24092J   26186.60171931  .00000207  00000-0  93870-4 0  9998
2 59781  98.6721 305.6226 0012789 151.3799 208.8089 14.31854817111539
SITRO-AIS-55
1 59809U 24092K   26186.32761234  .00030893  00000-0  84306-3 0  9996
2 59809  97.6592 319.9187 0007762  89.7715 270.4419 15.37353033118020
MESAT-1
1 60209U 24125G   26186.08295684  .00102783  00000-0  10198-2 0  9998
2 60209  97.2261  43.9963 0010849 144.0451 216.1541 15.65387255112361
ISTSAT-1
1 60238U 24128D   26186.50761331  .00008035  00000-0  47294-3 0  9990
2 60238  61.9876 141.3433 0036013 134.3736 226.0319 15.11841670109239
IONOSFERA-M 01
1 61735U 24199A   26186.40818662  .00000075  00000-0  52969-4 0  9992
2 61735  98.7149  59.3861 0002218  86.1314 274.0117 14.22757891130293
IONOSFERA-M 02
1 61736U 24199B   26186.58308929  .00000070  00000-0  50659-4 0  9991
2 61736  98.7148  59.4696 0000342  69.5972 290.5243 14.22761205133448
SITRO-AIS-16
1 61737U 24199C   26186.53078920  .00003144  00000-0  27287-3 0  9997
2 61737  97.3226  24.7151 0007024  14.6630 345.4795 14.97688348134562
SITRO-AIS-15
1 61738U 24199D   26186.51482465  .00003716  00000-0  32148-3 0  9996
2 61738  97.3241  24.7387 0006970  21.0147 339.1361 14.97713970134564
SITRO-AIS-21
1 61739U 24199E   26186.34400602  .00003786  00000-0  34859-3 0  9999
2 61739  97.3243  22.9393 0012564   9.1763 350.9686 14.95218577134462
SITRO-AIS-22
1 61740U 24199F   26186.49781878  .00004252  00000-0  38321-3 0  9991
2 61740  97.3246  23.3346 0012605   9.6884 350.4579 14.95997723134659
SITRO-AIS-24
1 61741U 24199G   26186.47994299  .00003587  00000-0  32204-3 0  9997
2 61741  97.3241  23.3680 0012403   8.9793 351.1649 14.96240765134624
SITRO-AIS-23
1 61742U 24199H   26186.35111963  .00004080  00000-0  36777-3 0  9992
2 61742  97.3239  23.2274 0012390   9.9324 350.2141 14.96020303134481
SITRO-AIS-13
1 61743U 24199J   26186.50032459  .00004708  00000-0  40332-3 0  9991
2 61743  97.3226  24.8925 0006555  24.0297 336.1231 14.97978108134738
CSTP-2.11
1 61744U 24199K   26186.41681117  .00032970  00000-0  52846-3 0  9998
2 61744  97.2923  61.9172 0007332 192.3697 167.7377 15.52995547137195
